#dP2022 11 25  0  0  0.00000000      96 __u+U ITR14 FIT  IAC
## 2237 432000.00000000   900.00000000 59908 0.0000000000000
+  128   C01C02C03C04C05C06C07C08C09C10C11C12C13C14C16C19C20
+        C21C22C23C24C25C26C27C28C29C30C32C33C34C35C36C37C38
+        C39C40C41C42C43C44C45C46C59C60E01E02E03E05E07E08E09
+        E10E11E12E13E14E15E18E19E21E24E25E26E27E30E31E33E34
+        E36G01G02G03G04G05G06G07G08G09G10G11G12G13G14G15G16
+        G17G18G19G20G21G22G23G24G25G26G27G29G30G31G32J02J03
+        J04J07R01R02R03R04R05R06R07R08R09R10R11R12R13R14R15
+        R17R18R19R20R21R22R23R24R25  0  0  0  0  0  0  0  0
++        17 17 17 17 17  9  9 10  8  9  9  9  9  9  9  7  7
++         7  7  7  7  7  7  7  7  7  7  7  7  7  7  7  7  8
++         8  8  8  7  7  7  7  7  0 19  4  4  4  4  4  4  4
++         5  4  5  4  4  4  5  4  4  5  4  4  3  4  5  4  4
++         4  4  4  4  4  3  4  4  3  3  3  4  4  3  4  4  4
++         4  4  4  4  4  4  4  4  4  4  4  4  3  4  4  8  8
++         9 17  7  6  6  6  6 15  6  6  6 15  6  9  9  9  6
++         6  6  7  7  6  9 15  6  8  0  0  0  0  0  0  0  0
%c M  cc GPS ccc cccc cccc cccc cccc ccccc ccccc ccccc ccccc
%c cc cc ccc ccc cccc cccc cccc cccc ccccc ccccc ccccc ccccc
%f  0.0000000  0.000000000  0.00000000000  0.000000000000000
%f  0.0000000  0.000000000  0.00000000000  0.000000000000000
%i    0    0    0    0      0      0      0      0         0
%i    0    0    0    0      0      0      0      0         0
/* INFORMATION & ANALYSIS CENTER (IAC)            RAPID DATA
/* S/V CLOCKS ARE ALIGNED TO GNSS TIME                      
/* G:C1WC2W R:C1PC2P E:C1XC5X C:C2IC6I J:C1CC2S             
/* PCV:IGS14_2233 OL/AL:FES2004  NONE     YN ORB:CoN CLK:CoN
*  2022 11 25 20 15  0.00000000
PC01 -34264.561321  24528.826118    873.938234    930.837289
PC02   4196.291735  41933.639747    195.340954    351.774404
PC03 -14848.063408  39431.293390    980.190666   -131.431048
PC04 -39588.795135  14443.837672    515.534344   -137.416934
PC05  21802.740346  36050.661238    -71.034209    -27.759599
PC06 -14766.003918  25859.978397 -29947.506488     -6.956564
PC07  -9889.860715  40727.120912  -3835.823546    163.328726
PC08    794.367719  26594.742128  32777.095261    516.364368
PC09  -6346.013526  25228.245947 -32893.014398   -798.083062
PC10  -3737.905284  41627.546276   3267.893346     62.294683
PC11  19171.430211   6494.872575  19297.614288   -271.588232
PC12   1016.335965  15866.637445  22976.616703    317.520720
PC13   8138.899757  30874.506368  27837.449123    142.493077
PC14  12516.356210  13779.052338 -20763.278179    208.473943
PC16 -20653.491559  24761.140361 -27139.084683    111.642664
PC19 -15474.646146  -3053.947180  23038.919065   -909.980646
PC20  -8407.669360 -20980.224503  16386.383682    826.254124
PC21  -4309.954007  27556.038385    672.877343   -900.620616
PC22 -13959.787766  17473.104217  16672.542239   -773.903540
PC23  16857.036005  -6289.894032  21335.051259   -874.812923
PC24  16711.163267  20758.143403  -8351.134536   -758.252900
PC25  24353.905595   8945.645161  10300.217971     30.101845
PC26   1674.465356  19282.609678 -20131.023335    -41.042557
PC27   8421.966364 -17926.895010 -19669.354286     56.849947
PC28  23403.883261 -13825.315585  -6322.089558     40.127828
PC29 -25135.912829   1833.850128 -11984.350992     45.379024
PC30 -11466.456212 -12041.586049 -22416.152408      1.071666
PC32   4142.894705 -27587.713325   -747.619183   -704.771335
PC33  15496.905844   3073.070934 -23004.966755   -904.763336
PC34  12606.300882  11404.144857  22120.347555     47.325872
PC35 -23730.251394  13909.501654   4800.669320    104.761353
PC36 -24143.128437 -10007.756716  -9744.360016   -813.817496
PC37    187.886957 -18713.005998  20702.203368   -906.241555
PC38  -7335.621090  23656.528195  34181.998139     40.652698
PC39 -23621.202657  25429.524411 -24076.983112     -0.933810
PC40 -16266.696586  38022.207989  -7685.693634     -8.858976
PC41  14084.104622 -17020.986885 -17000.533659   -313.880442
PC42   7749.354584  21871.420699 -15456.192720   -732.231846
PC43  24875.617510  -1112.011428  12574.380635     26.882605
PC44  -7987.731579  18349.656902  19452.497601    125.355432
PC45 -16477.507678   6549.277925 -21544.028463    -26.918152
PC46 -17973.977323 -20229.685232   6714.433730    -15.412933
PC59      0.000000      0.000000      0.000000 999999.999999
PC60   7325.259114  41497.561223   1482.199842     -0.687649
PE01  -2904.971880 -27525.233100  10479.500243   -570.264831
PE02   3110.596792  27609.434653 -10243.448701      4.798883
PE03  -6435.851991  24790.068016 -14844.391821   -623.583980
PE05 -20104.262855  21486.112969   3231.775381   -121.129174
PE07  21845.664239  -5715.103149 -19142.947574     -2.198267
PE08  10520.586840  13667.576623 -24062.457278   -638.336579
PE09 -21679.888718   5627.077575  19342.001749   -741.961272
PE10 -27365.449715  -8677.927044  -7188.534717   -493.379633
PE11 -29325.530481  -2169.244152   3414.992154   1157.324402
PE12 -21265.303559 -13430.300099 -15611.879164   -296.814972
PE13  29369.298699   2712.948729  -2510.327249    430.532195
PE14 -14879.280952  18612.284383   3895.198216     66.930517
PE15  21049.794114  13455.349066  15887.223255    705.063875
PE18  11835.670037 -26608.193502 -13876.619937   -701.055101
PE19   8847.553081 -25187.734637  12775.127125  -3903.406775
PE21  10152.566256 -16331.843861  22502.232806   -496.735696
PE24 -18621.333962  -6060.021864 -22198.218557   -967.377100
PE25 -10331.786628  16067.024067 -22607.380015   -593.513094
PE26  19691.840755 -10041.328869 -19683.669881  -1887.099749
PE27  18477.375402   5010.089709  22585.480932   -448.255387
PE30  15448.260240  23725.898930   8669.162245  -1027.723640
PE31 -15832.407019 -23180.449553  -9363.698762   -509.082947
PE33   -368.162506 -16179.627497 -24775.588562   -455.606067
PE34    615.425786  16206.473667  24761.437552    -16.446569
PE36 -20380.642255   9512.564655  19250.354583   -466.176667
PG01 -18549.857541 -13863.977979 -13621.565625    246.513978
PG02  20807.894726  11611.638791  12146.456104   -636.151417
PG03 -12264.560006 -22247.170790   7817.865518   -374.241502
PG04  -9803.993608 -11662.496651  21754.196412    -79.995752
PG05   5359.817257  25449.834389   4889.741629   -105.685986
PG06 -18252.427443   7668.633896  17809.966976    526.700178
PG07 -26041.989182  -6450.754263    374.697571    282.852848
PG08   -310.640532 -19002.986783 -18437.755110    -95.588230
PG09 -18106.847654   -353.664896  19363.463732   -263.209224
PG10  13448.619587  -6421.636663 -21807.264533    -13.428796
PG11  -6161.694691  13929.380365  21763.998127    -45.688696
PG12  10271.834982  23463.299668   6962.073104   -308.539268
PG13  -8752.125484  20240.244233 -14842.971864    431.054102
PG14 -14899.586469   3985.764431 -21615.141265    -77.891376
PG15   3251.672942  19137.529368 -18455.841878     -9.365385
PG16   1079.646202 -24668.699918   8853.506984   -526.767928
PG17 -21739.500250  11313.460261  -9893.935247    680.938905
PG18  26073.328173   4859.774835  -2493.518073    -35.454838
PG19 -19994.546835  17263.473502     26.985006    242.198898
PG20  -2685.945064  20989.849850  16207.174514    467.675293
PG21 -11809.678055 -14715.919198 -18386.245153    155.266793
PG22  17769.922846 -19368.386872   3495.528395    371.961490
PG23  16411.997181   5680.390228 -20140.267165     -0.741235
PG24  15514.447981  14582.573204 -16469.798115     43.503982
PG25  15793.445732  15255.588043  14839.182843    396.126108
PG26   7391.152371 -17927.915605  17906.321317    236.826617
PG27  10282.919643 -21865.012938 -10768.887410    169.384345
PG29  16622.071757   3387.783745  20415.488899   -569.717998
PG30 -24075.698472   2512.754930 -11129.065569   -536.303720
PG31  17570.083950  -8633.996695  17995.917527   -201.330288
PG32  20729.639000 -14343.544133  -7883.906582   -308.334589
PJ02 -19590.317245  25100.065600 -22988.296178     -0.188867
PJ03 -30001.954409  26386.250659  18713.931086     -5.345280
PJ04 -28574.742307  27877.843715  19573.580452    113.706858
PJ07 -25394.051458  33662.187628    -16.189410      0.017150
PR01   7811.185936  10401.837531 -21946.057084     18.493408
PR02  13041.675200  -9461.516584 -19712.727653    -23.374501
PR03  10367.448593 -22562.572007  -5655.896592     67.930949
PR04   2216.365724 -22779.904632  11264.506472    166.260009
PR05  -7221.602685 -10609.275502  22043.441216    103.513387
PR06 -12905.283100  10999.567815  19051.576918    -82.133759
PR07 -10174.189348  22893.494410   4987.500150     44.967377
PR08  -2043.178185  22795.624236 -11250.454769    -68.256892
PR09 -15887.321712  -2727.280937 -19778.129557     89.582608
PR10  -4897.682311  10720.348598 -22638.994622    -88.111400
PR11   9857.732787  19749.893695 -12764.384182     18.735562
PR12  18563.117974  16519.527458   5832.320443     23.155190
PR13  16387.427454   4366.574312  19040.172445    -29.287908
PR14   3689.695266 -11974.025173  22231.125117     24.088344
PR15 -10320.235379 -20093.416451  11867.750792     92.737780
PR17  16394.119061 -10795.952771 -16300.862229    581.361388
PR18   -674.105766 -10487.607976 -23219.671020     53.776551
PR19 -16144.278600  -5887.138188 -18840.944236   -212.284778
PR20 -25250.265278   3682.351942   -702.108792    -82.818818
PR21 -14985.328123  10902.382723  17518.561277   -352.566576
PR22   1143.869670  10822.974563  23100.112164     19.642684
PR23  20132.853070   3283.243413  15315.090988    -63.371822
PR24  25082.838266  -4697.284188     91.853730    128.761693
PR25 -17155.208139  10115.864644  15933.094549     47.265200
EOF
